     2.100          NAVIGATION                              RINEX VERSION / TYPE
fic2rin                                 04/02/2015 00:18:16 PGM / RUN BY / DATE
                                                            END OF HEADER
31 15  4  1 16  0  0.0  .319705344737D-03 -.102318153949D-11  .000000000000D+00
     .390000000000D+02 -.539062500000D+02  .420624663563D-08  .855035638706D+00
    -.294484198093D-05  .818198814522D-02  .829063355923D-05  .515375659180D+04
     .316800000000D+06  .141561031342D-06  .224261090604D+01 -.465661287308D-07
     .975555221756D+00  .224531250000D+03 -.523942045912D+00 -.794925969000D-08
    -.516807241382D-09  .100000000000D+01  .183800000000D+04  .000000000000D+00
     .240000000000D+01  .000000000000D+00 -.135041773319D-07  .390000000000D+02
     .309606000000D+06  .400000000000D+01
32 15  4  1 16  0  0.0 -.186802353710D-03  .943600753089D-11  .000000000000D+00
     .790000000000D+02  .566250000000D+02  .477198448659D-08  .150898120173D+01
     .282377004623D-05  .112817160552D-01  .101700425148D-04  .515380204964D+04
     .316800000000D+06  .558793544769D-08  .197651611086D+00  .186264514923D-06
     .947551065191D+00  .176500000000D+03  .288100357108D-01 -.814712507475D-08
     .233938315898D-09  .100000000000D+01  .183800000000D+04  .000000000000D+00
     .240000000000D+01  .000000000000D+00 -.372529029846D-08  .790000000000D+02
     .309606000000D+06  .400000000000D+01
16 15  4  1 15 59 44.0 -.142734963447D-03  .352429196937D-11  .000000000000D+00
     .200000000000D+01  .542812500000D+02  .362693679076D-08 -.163536755002D+01
     .274926424026D-05  .823410903104D-02  .995583832264D-05  .515377451324D+04
     .316784000000D+06 -.447034835815D-07 -.296209302073D+01 -.109896063805D-06
     .990348707267D+00  .204937500000D+03  .264066691872D+00 -.754174271528D-08
     .296083761649D-09  .100000000000D+01  .183800000000D+04  .000000000000D+00
     .240000000000D+01  .000000000000D+00 -.102445483208D-07  .200000000000D+01
     .310326000000D+06  .400000000000D+01
 6 15  4  1 15 59 44.0  .124363694340D-03  .101181285572D-10  .000000000000D+00
     .120000000000D+02 -.852187500000D+02  .439696886569D-08 -.264766805112D+01
    -.428780913353D-05  .218967208639D-03  .891834497452D-05  .515372709465D+04
     .316784000000D+06  .316649675369D-07 -.933637306930D+00 -.111758708954D-07
     .961826927861D+00  .206875000000D+03  .312371872196D+01 -.805890711440D-08
    -.302869758598D-09  .100000000000D+01  .183800000000D+04  .000000000000D+00
     .240000000000D+01  .000000000000D+00  .465661287308D-08  .120000000000D+02
     .311946000000D+06  .400000000000D+01
26 15  4  1 15 59 44.0  .390689820051D-05  .150066625793D-10  .000000000000D+00
     .350000000000D+02  .466562500000D+02  .418946022212D-08 -.129452623124D+01
     .230222940445D-05  .223494484089D-03  .103674829006D-04  .518126203918D+04
     .316784000000D+06 -.260770320892D-07 -.302853784264D+01 -.428408384323D-07
     .960402259238D+00  .169937500000D+03  .160199502392D+01 -.768746307084D-08
     .137862885400D-09  .100000000000D+01  .183800000000D+04  .000000000000D+00
     .240000000000D+01  .630000000000D+02  .838190317154D-08  .350000000000D+02
     .312276000000D+06  .400000000000D+01
 6 15  4  1 17 59 44.0  .124436803162D-03  .101181285572D-10  .000000000000D+00
     .130000000000D+02 -.785625000000D+02  .434982404477D-08 -.159541851373D+01
    -.401772558689D-05  .218339962885D-03  .885874032974D-05  .515372844124D+04
     .323984000000D+06 -.167638063431D-07 -.933695029289D+00 -.931322574615D-08
     .961824710077D+00  .208656250000D+03  .312161544660D+01 -.803354891527D-08
    -.337514058815D-09  .100000000000D+01  .183800000000D+04  .000000000000D+00
     .240000000000D+01  .000000000000D+00  .465661287308D-08  .130000000000D+02
     .316806000000D+06  .400000000000D+01
16 15  4  1 17 59 44.0 -.142709352076D-03  .352429196937D-11  .000000000000D+00
     .300000000000D+01  .468125000000D+02  .366908140340D-08 -.585139009091D+00
     .240281224251D-05  .823454349302D-02  .999309122562D-05  .515377649498D+04
     .323984000000D+06  .149011611938D-06 -.296214692195D+01  .149011611938D-07
     .990349795678D+00  .203468750000D+03  .263949971490D+00 -.769282043685D-08
     .152149194768D-09  .100000000000D+01  .183800000000D+04  .000000000000D+00
     .240000000000D+01  .000000000000D+00 -.102445483208D-07  .300000000000D+01
     .316806000000D+06  .400000000000D+01
26 15  4  1 17 59 44.0  .401493161917D-05  .150066625793D-10  .000000000000D+00
     .360000000000D+02  .541562500000D+02  .422339020687D-08 -.258865567521D+00
     .290945172310D-05  .224589719437D-03  .107176601887D-04  .518126417732D+04
     .323984000000D+06  .577419996262D-07 -.302859338672D+01 -.260770320892D-07
     .960403281817D+00  .163000000000D+03  .159982719145D+01 -.770603527301D-08
     .175721605224D-09  .100000000000D+01  .183800000000D+04  .000000000000D+00
     .240000000000D+01  .630000000000D+02  .838190317154D-08  .360000000000D+02
     .316806000000D+06  .400000000000D+01
 1 15  4  1 18  0  0.0 -.728806480765D-05  .454747350886D-12  .000000000000D+00
     .170000000000D+02 -.691562500000D+02  .437268213976D-08  .266936423220D+01
    -.349804759026D-05  .403663562611D-02  .834465026855D-05  .515367136574D+04
     .324000000000D+06 -.447034835815D-07 -.925175910182D+00 -.260770320892D-07
     .961939382374D+00  .218968750000D+03  .379066140803D+00 -.801890544817D-08
    -.270011247052D-09  .100000000000D+01  .183800000000D+04  .000000000000D+00
     .240000000000D+01  .000000000000D+00  .558793544769D-08  .170000000000D+02
     .316806000000D+06  .400000000000D+01
 2 15  4  1 18  0  0.0  .557143706828D-03  .227373675443D-11  .000000000000D+00
     .590000000000D+02 -.910937500000D+02  .475198365348D-08 -.311777085985D+01
    -.467151403427D-05  .145639675902D-01  .849738717079D-05  .515379889870D+04
     .324000000000D+06  .409781932831D-07 -.961518057578D+00 -.189989805222D-06
     .940528707310D+00  .202187500000D+03 -.228984430738D+01 -.804247785863D-08
    -.321441960776D-09  .100000000000D+01  .183800000000D+04  .000000000000D+00
     .240000000000D+01  .000000000000D+00 -.204890966415D-07  .590000000000D+02
     .316806000000D+06  .400000000000D+01
 3 15  4  1 18  0  0.0  .279958825558D-03  .152340362547D-10  .000000000000D+00
     .100000000000D+03  .444687500000D+02  .439125434194D-08 -.149975740522D+01
     .207498669624D-05  .921827391721D-03  .104662030935D-04  .515372199440D+04
     .324000000000D+06  .167638063431D-07  .115072969342D+00 -.372529029846D-08
     .959868046906D+00  .173968750000D+03 -.281320700262D+01 -.795461705602D-08
     .365372362083D-09  .100000000000D+01  .183800000000D+04  .000000000000D+00
     .340000000000D+01  .000000000000D+00  .139698386192D-08  .100000000000D+03
     .316806000000D+06  .400000000000D+01
 4 15  4  1 18  0  0.0 -.102701596916D-04 -.909494701773D-12  .000000000000D+00
     .410000000000D+02 -.760625000000D+02  .479377110838D-08  .243191733167D+01
    -.399351119995D-05  .111298840493D-01  .785663723946D-05  .515371659279D+04
     .324000000000D+06  .689178705215D-07 -.946173950183D+00 -.167638063431D-06
     .939588990179D+00  .216343750000D+03  .105238015110D+01 -.813641034272D-08
    -.262868092368D-09  .100000000000D+01  .183800000000D+04  .000000000000D+00
     .240000000000D+01  .000000000000D+00 -.651925802231D-08  .410000000000D+02
     .316806000000D+06  .400000000000D+01
 5 15  4  1 18  0  0.0 -.259315129369D-03  .488853402203D-11  .000000000000D+00
     .530000000000D+02  .448125000000D+02  .465626538071D-08 -.723752651980D+00
     .246055424213D-05  .402972334996D-02  .110398977995D-04  .515380585098D+04
     .324000000000D+06  .912696123123D-07  .108781570183D+00  .242143869400D-07
     .947115732955D+00  .155093750000D+03  .401675813284D+00 -.812105256015D-08
     .414302971667D-09  .100000000000D+01  .183800000000D+04  .000000000000D+00
     .240000000000D+01  .000000000000D+00 -.107102096081D-07  .530000000000D+02
     .316806000000D+06  .400000000000D+01
 7 15  4  1 18  0  0.0  .452162232250D-03  .284217094304D-11  .000000000000D+00
     .890000000000D+02 -.540312500000D+02  .442589864216D-08  .205348013738D+01
    -.275298953056D-05  .813995045610D-02  .887922942638D-05  .515372834969D+04
     .324000000000D+06 -.201165676117D-06  .223504723921D+01  .115483999252D-06
     .970651869992D+00  .217687500000D+03 -.275806548016D+01 -.798961851397D-08
    -.447518640948D-09  .100000000000D+01  .183800000000D+04  .000000000000D+00
     .240000000000D+01  .000000000000D+00 -.111758708954D-07  .890000000000D+02
     .316806000000D+06  .400000000000D+01
 8 15  4  1 18  0  0.0  .190967693925D-04  .454747350886D-12  .000000000000D+00
     .600000000000D+02 -.596562500000D+02  .374051295024D-08 -.266134741919D+01
    -.305101275444D-05  .145055955509D-01  .971741974354D-05  .515358877563D+04
     .324000000000D+06 -.875443220139D-07  .234130006919D+01 -.309199094772D-06
     .994335426747D+00  .205687500000D+03 -.268172165190D+01 -.751138430788D-08
    -.414302971667D-09  .100000000000D+01  .183800000000D+04  .000000000000D+00
     .340000000000D+01  .630000000000D+02 -.512227416039D-08  .600000000000D+02
     .316806000000D+06  .400000000000D+01
 9 15  4  1 18  0  0.0 -.127358827740D-03 -.886757334229D-11  .000000000000D+00
     .100000000000D+03  .240312500000D+02  .512664211665D-08 -.195412108796D+01
     .130571424961D-05  .426530372351D-03  .397674739361D-05  .515362047195D+04
     .324000000000D+06 -.558793544769D-08  .115857132493D+01 -.186264514923D-07
     .957697727474D+00  .305437500000D+03  .236103545582D+01 -.844928051788D-08
     .160720980388D-09  .100000000000D+01  .183800000000D+04  .000000000000D+00
     .240000000000D+01  .000000000000D+00  .465661287308D-09  .100000000000D+03
     .316806000000D+06  .400000000000D+01
